{"fetched_at":"2026-03-29T16:36:15Z","count":15609,"tles":[{"name":"STARLINK-32837","line1":"1 62812U 25018G   26087.65115132  .00019981  00000+0  68461-3 0  9997","line2":"2 62812  53.1584 221.3803 0001085  86.3325 273.7800 15.30215338 66085","category":"Starlink"}]}