{
  "norad_id": 62812,
  "name": "STARLINK-32837",
  "history": [
    {
      "epoch": "2026-03-28T15:37:39.474048",
      "apogee_km": 475.9128570292014,
      "perigee_km": 474.42568956789546,
      "latitude_deg": 44.84146530746357,
      "longitude_deg": 163.7105267199222,
      "semi_major_axis_km": 6853.306273298548,
      "eccentricity": 0.0001085,
      "inclination_deg": 53.1584,
      "raan_deg": 221.3803,
      "arg_perigee_deg": 86.3325,
      "mean_anomaly_deg": 273.78,
      "mean_motion_rev_day": 15.30215338
    }
  ]
}